{
  "type": "FeatureCollection",
  "features": [
    {
      "type": "Feature",
      "properties": {
        "norad_id": 35052,
        "name": "IRIDIUM 33 DEB",
        "group": "iridium-33-debris",
        "lat": -72.275927220431,
        "lon": 3.9244471375428107,
        "alt_km": 776.2159625297727,
        "timestamp": "2025-12-24T07:45:06.584086+00:00",
        "meta_object_name": "IRIDIUM 33 DEB",
        "meta_object_id": "1997-051NY",
        "meta_epoch": "2025-12-23T18:44:00.353760",
        "meta_mean_motion": 14.38504324,
        "meta_eccentricity": 0.00131737,
        "meta_inclination": 86.33,
        "meta_ra_of_asc_node": 15.7419,
        "meta_arg_of_pericenter": 54.1122,
        "meta_mean_anomaly": 306.1297,
        "meta_ephemeris_type": 0,
        "meta_classification_type": "U",
        "meta_norad_cat_id": 35052,
        "meta_element_set_no": 999,
        "meta_rev_at_epoch": 87434,
        "meta_bstar": 0.00016915934,
        "meta_mean_motion_dot": 5.37e-06,
        "meta_mean_motion_ddot": 0,
        "tle_line1": "1 35052U 97051NY  25357.78055965  .00000537  00000+0  16916-3 0  9994",
        "tle_line2": "2 35052  86.3300  15.7419 0013173  54.1122 306.1297 14.38504324874342"
      },
      "geometry": {
        "type": "Point",
        "coordinates": [
          3.9244471375428107,
          -72.275927220431
        ]
      }
    },
    {
      "type": "Feature",
      "properties": {
        "norad_id": 35080,
        "name": "IRIDIUM 33 DEB",
        "group": "iridium-33-debris",
        "lat": -50.03568028953816,
        "lon": 42.29652110627303,
        "alt_km": 653.503987831401,
        "timestamp": "2025-12-24T07:45:06.584103+00:00",
        "meta_object_name": "IRIDIUM 33 DEB",
        "meta_object_id": "1997-051PF",
        "meta_epoch": "2025-12-23T20:40:34.434624",
        "meta_mean_motion": 14.87254484,
        "meta_eccentricity": 0.00583485,
        "meta_inclination": 86.2085,
        "meta_ra_of_asc_node": 47.0561,
        "meta_arg_of_pericenter": 141.3526,
        "meta_mean_anomaly": 219.1898,
        "meta_ephemeris_type": 0,
        "meta_classification_type": "U",
        "meta_norad_cat_id": 35080,
        "meta_element_set_no": 999,
        "meta_rev_at_epoch": 69853,
        "meta_bstar": 0.0059707931,
        "meta_mean_motion_dot": 0.00055878,
        "meta_mean_motion_ddot": 0,
        "tle_line1": "1 35080U 97051PF  25357.86150966  .00055878  00000+0  59708-2 0  9994",
        "tle_line2": "2 35080  86.2085  47.0561 0058348 141.3526 219.1898 14.87254484698536"
      },
      "geometry": {
        "type": "Point",
        "coordinates": [
          42.29652110627303,
          -50.03568028953816
        ]
      }
    },
    {
      "type": "Feature",
      "properties": {
        "norad_id": 35297,
        "name": "IRIDIUM 33 DEB",
        "group": "iridium-33-debris",
        "lat": 66.9528911198567,
        "lon": -130.73056844272855,
        "alt_km": 722.0137017099723,
        "timestamp": "2025-12-24T07:45:06.584113+00:00",
        "meta_object_name": "IRIDIUM 33 DEB",
        "meta_object_id": "1997-051PM",
        "meta_epoch": "2025-12-22T21:59:54.464640",
        "meta_mean_motion": 14.45198443,
        "meta_eccentricity": 0.0018277,
        "meta_inclination": 86.3852,
        "meta_ra_of_asc_node": 58.4147,
        "meta_arg_of_pericenter": 110.0569,
        "meta_mean_anomaly": 250.2602,
        "meta_ephemeris_type": 0,
        "meta_classification_type": "U",
        "meta_norad_cat_id": 35297,
        "meta_element_set_no": 999,
        "meta_rev_at_epoch": 70573,
        "meta_bstar": 0.00060275,
        "meta_mean_motion_dot": 2.134e-05,
        "meta_mean_motion_ddot": 0,
        "tle_line1": "1 35297U 97051PM  25356.91660260  .00002134  00000+0  60275-3 0  9991",
        "tle_line2": "2 35297  86.3852  58.4147 0018277 110.0569 250.2602 14.45198443705738"
      },
      "geometry": {
        "type": "Point",
        "coordinates": [
          -130.73056844272855,
          66.9528911198567
        ]
      }
    },
    {
      "type": "Feature",
      "properties": {
        "norad_id": 35299,
        "name": "IRIDIUM 33 DEB",
        "group": "iridium-33-debris",
        "lat": -46.996235688917636,
        "lon": -147.8648614805381,
        "alt_km": 802.0367022924911,
        "timestamp": "2025-12-24T07:45:06.584124+00:00",
        "meta_object_name": "IRIDIUM 33 DEB",
        "meta_object_id": "1997-051PP",
        "meta_epoch": "2025-12-23T02:37:39.072000",
        "meta_mean_motion": 14.40910271,
        "meta_eccentricity": 0.00585818,
        "meta_inclination": 86.2874,
        "meta_ra_of_asc_node": 28.6713,
        "meta_arg_of_pericenter": 69.2338,
        "meta_mean_anomaly": 346.7507,
        "meta_ephemeris_type": 0,
        "meta_classification_type": "U",
        "meta_norad_cat_id": 35299,
        "meta_element_set_no": 999,
        "meta_rev_at_epoch": 86480,
        "meta_bstar": 0.00082085889,
        "meta_mean_motion_dot": 2.707e-05,
        "meta_mean_motion_ddot": 0,
        "tle_line1": "1 35299U 97051PP  25357.10948000  .00002707  00000+0  82086-3 0  9996",
        "tle_line2": "2 35299  86.2874  28.6713 0058581  69.2338 346.7507 14.40910271864807"
      },
      "geometry": {
        "type": "Point",
        "coordinates": [
          -147.8648614805381,
          -46.996235688917636
        ]
      }
    },
    {
      "type": "Feature",
      "properties": {
        "norad_id": 35480,
        "name": "IRIDIUM 33 DEB",
        "group": "iridium-33-debris",
        "lat": -22.861710102156202,
        "lon": 18.351063920690653,
        "alt_km": 732.4066365908893,
        "timestamp": "2025-12-24T07:45:06.584134+00:00",
        "meta_object_name": "IRIDIUM 33 DEB",
        "meta_object_id": "1997-051QA",
        "meta_epoch": "2025-12-23T11:58:47.175168",
        "meta_mean_motion": 14.49804524,
        "meta_eccentricity": 0.00162048,
        "meta_inclination": 86.3563,
        "meta_ra_of_asc_node": 20.2477,
        "meta_arg_of_pericenter": 73.1284,
        "meta_mean_anomaly": 287.1696,
        "meta_ephemeris_type": 0,
        "meta_classification_type": "U",
        "meta_norad_cat_id": 35480,
        "meta_element_set_no": 999,
        "meta_rev_at_epoch": 87187,
        "meta_bstar": 0.00052903824,
        "meta_mean_motion_dot": 2.063e-05,
        "meta_mean_motion_ddot": 0,
        "tle_line1": "1 35480U 97051QA  25357.49915712  .00002063  00000+0  52904-3 0  9995",
        "tle_line2": "2 35480  86.3563  20.2477 0016204  73.1284 287.1696 14.49804524871874"
      },
      "geometry": {
        "type": "Point",
        "coordinates": [
          18.351063920690653,
          -22.861710102156202
        ]
      }
    },
    {
      "type": "Feature",
      "properties": {
        "norad_id": 35484,
        "name": "IRIDIUM 33 DEB",
        "group": "iridium-33-debris",
        "lat": 30.687626221782676,
        "lon": -10.511585440402012,
        "alt_km": 558.0535010058775,
        "timestamp": "2025-12-24T07:45:06.584144+00:00",
        "meta_object_name": "IRIDIUM 33 DEB",
        "meta_object_id": "1997-051QE",
        "meta_epoch": "2025-12-23T05:59:10.354560",
        "meta_mean_motion": 14.99264182,
        "meta_eccentricity": 0.00245796,
        "meta_inclination": 86.3609,
        "meta_ra_of_asc_node": 347.8264,
        "meta_arg_of_pericenter": 91.5392,
        "meta_mean_anomaly": 268.8655,
        "meta_ephemeris_type": 0,
        "meta_classification_type": "U",
        "meta_norad_cat_id": 35484,
        "meta_element_set_no": 999,
        "meta_rev_at_epoch": 62173,
        "meta_bstar": 0.0029536278,
        "meta_mean_motion_dot": 0.00036413,
        "meta_mean_motion_ddot": 0,
        "tle_line1": "1 35484U 97051QE  25357.24942540  .00036413  00000+0  29536-2 0  9991",
        "tle_line2": "2 35484  86.3609 347.8264 0024579  91.5392 268.8655 14.99264182621733"
      },
      "geometry": {
        "type": "Point",
        "coordinates": [
          -10.511585440402012,
          30.687626221782676
        ]
      }
    },
    {
      "type": "Feature",
      "properties": {
        "norad_id": 35488,
        "name": "IRIDIUM 33 DEB",
        "group": "iridium-33-debris",
        "lat": -22.919776892213157,
        "lon": 117.09397720042998,
        "alt_km": 643.216742282525,
        "timestamp": "2025-12-24T07:45:06.584155+00:00",
        "meta_object_name": "IRIDIUM 33 DEB",
        "meta_object_id": "1997-051QJ",
        "meta_epoch": "2025-12-22T19:13:13.565280",
        "meta_mean_motion": 14.8329676,
        "meta_eccentricity": 0.00284188,
        "meta_inclination": 86.3248,
        "meta_ra_of_asc_node": 296.2385,
        "meta_arg_of_pericenter": 9.7501,
        "meta_mean_anomaly": 350.4267,
        "meta_ephemeris_type": 0,
        "meta_classification_type": "U",
        "meta_norad_cat_id": 35488,
        "meta_element_set_no": 999,
        "meta_rev_at_epoch": 88415,
        "meta_bstar": 0.0016428334,
        "meta_mean_motion_dot": 0.00013576,
        "meta_mean_motion_ddot": 0,
        "tle_line1": "1 35488U 97051QJ  25356.80085145  .00013576  00000+0  16428-2 0  9996",
        "tle_line2": "2 35488  86.3248 296.2385 0028418   9.7501 350.4267 14.83296760884150"
      },
      "geometry": {
        "type": "Point",
        "coordinates": [
          117.09397720042998,
          -22.919776892213157
        ]
      }
    }
  ]
}